NORAD_CAT_ID,OBJECT_NAME,OBJECT_TYPE,EPOCH,MEAN_MOTION,ECCENTRICITY,INCLINATION,RA_OF_ASC_NODE,ARG_OF_PERICENTER,MEAN_ANOMALY,BSTAR,MEAN_MOTION_DOT,MEAN_MOTION_DDOT,TLE_LINE0,TLE_LINE1,TLE_LINE2,SEMIMAJOR_AXIS,PERIOD,APOGEE,PERIGEE,DECAYED
55426.0,STARLINK-5638,PAYLOAD,2023-06-18 11:08:38,14.98326919,0.0003223,69.9999,73.9086,264.4788,95.6004,-0.00015911,-1.991e-05,0.0,0 STARLINK-5638,1 55426U 23014AM  23169.46433783 -.00001991  00000-0 -15911-3 0  9993,2 55426  69.9999  73.9086 0003223 264.4788  95.6004 14.98326919 22489,6950.202,96.107,574.307,569.827,0.0
55426.0,STARLINK-5638,PAYLOAD,2023-06-19 04:46:06,14.98333963,0.0003186,69.9999,72.0575,268.3548,91.7246,3.1698e-06,-5.5e-07,0.0,0 STARLINK-5638,1 55426U 23014AM  23170.19869054 -.00000055  00000-0  31698-5 0  9990,2 55426  69.9999  72.0575 0003186 268.3548  91.7246 14.98333963 21657,6950.181,96.107,574.26,569.831,0.0
55426.0,STARLINK-5638,PAYLOAD,2023-06-20 04:48:07,14.98334217,0.0003282,70.0001,69.5331,268.8371,91.2412,0.0002436,2.815e-05,0.0,0 STARLINK-5638,1 55426U 23014AM  23171.20008355  .00002815  00000-0  24360-3 0  9993,2 55426  70.0001  69.5331 0003282 268.8371  91.2412 14.98334217 21801,6950.18,96.107,574.326,569.764,0.0
55426.0,STARLINK-5638,PAYLOAD,2023-06-20 17:37:12,14.98331947,0.0003107,70.0009,68.1885,268.2754,91.8049,4.3115e-05,4.21e-06,0.0,0 STARLINK-5638,1 55426U 23014AM  23171.73417041  .00000421  00000-0  43115-4 0  9998,2 55426  70.0009  68.1885 0003107 268.2754  91.8049 14.98331947 21880,6950.187,96.107,574.211,569.892,0.0
55426.0,STARLINK-5638,PAYLOAD,2023-06-20 20:49:28,14.98332305,0.0003116,70.001,67.8519,268.1539,91.9263,4.3499e-05,4.26e-06,0.0,0 STARLINK-5638,1 55426U 23014AM  23171.86768983  .00000426  00000-0  43499-4 0  9996,2 55426  70.0010  67.8519 0003116 268.1539  91.9263 14.98332305 22847,6950.186,96.107,574.216,569.885,0.0
55426.0,STARLINK-5638,PAYLOAD,2023-06-21 03:14:00,14.98337262,0.0003019,70.0007,67.1779,265.3685,94.7129,4.2854e-05,4.18e-06,0.0,0 STARLINK-5638,1 55426U 23014AM  23172.13472548  .00000418  00000-0  42854-4 0  9991,2 55426  70.0007  67.1779 0003019 265.3685  94.7129 14.98337262 22880,6950.17,96.107,574.134,569.937,0.0
55426.0,STARLINK-5638,PAYLOAD,2023-06-21 19:15:21,14.98330106,0.0002806,70.0014,65.4949,265.6723,94.4116,-8.3048e-05,-1.084e-05,0.0,0 STARLINK-5638,1 55426U 23014AM  23172.80233142 -.00001084  00000-0 -83048-4 0  9992,2 55426  70.0014  65.4949 0002806 265.6723  94.4116 14.98330106 22048,6950.193,96.107,574.008,570.107,0.0
55426.0,STARLINK-5638,PAYLOAD,2023-06-22 09:40:33,14.9835438,0.0002975,70.0011,63.9797,270.2963,89.7855,-0.00048077,-5.828e-05,0.0,0 STARLINK-5638,1 55426U 23014AM  23173.40316349 -.00005828  00000-0 -48077-3 0  9992,2 55426  70.0011  63.9797 0002975 270.2963  89.7855 14.98354380 22131,6950.117,96.105,574.05,569.915,0.0
55426.0,STARLINK-5638,PAYLOAD,2023-06-22 19:17:21,14.98333899,0.0002885,70.0008,62.9693,268.8066,91.2762,-1.0258e-05,-2.15e-06,0.0,0 STARLINK-5638,1 55426U 23014AM  23173.80372529 -.00000215  00000-0 -10258-4 0  9994,2 55426  70.0008  62.9693 0002885 268.8066  91.2762 14.98333899 22191,6950.181,96.107,574.051,570.041,0.0
55426.0,STARLINK-5638,PAYLOAD,2023-06-23 17:43:15,14.98322785,0.000279,70.0011,60.6103,256.1026,103.9822,1.8102e-05,1.23e-06,0.0,0 STARLINK-5638,1 55426U 23014AM  23174.73836948  .00000123  00000-0  18102-4 0  9999,2 55426  70.0011  60.6103 0002790 256.1026 103.9822 14.98322785 22333,6950.215,96.107,574.019,570.141,0.0
55426.0,STARLINK-5638,PAYLOAD,2023-06-25 01:45:56,14.98332785,0.0003172,70.0003,57.2453,267.831,92.2486,1.6645e-05,1.06e-06,0.0,0 STARLINK-5638,1 55426U 23014AM  23176.07356507  .00000106  00000-0  16645-4 0  9997,2 55426  70.0003  57.2453 0003172 267.8310  92.2486 14.98332785 22533,6950.184,96.107,574.254,569.845,0.0
55426.0,STARLINK-5638,PAYLOAD,2023-06-26 01:47:56,14.98333249,0.0003302,70.0002,54.7209,270.0168,90.0612,4.539e-05,4.49e-06,0.0,0 STARLINK-5638,1 55426U 23014AM  23177.07496376  .00000449  00000-0  45390-4 0  9996,2 55426  70.0002  54.7209 0003302 270.0168  90.0612 14.98333249 22684,6950.183,96.107,574.343,569.753,0.0
55426.0,STARLINK-5638,PAYLOAD,2023-06-26 16:13:09,14.98325909,0.0003177,70.0004,53.2057,270.517,89.5625,-7.1407e-06,-1.78e-06,0.0,0 STARLINK-5638,1 55426U 23014AM  23177.67581014 -.00000178  00000-0 -71407-5 0  9996,2 55426  70.0004  53.2057 0003177 270.5170  89.5625 14.98325909 22770,6950.206,96.107,574.279,569.862,0.0
55426.0,STARLINK-5638,PAYLOAD,2023-06-27 01:49:58,14.98331643,0.000317,70.0004,52.1958,270.9613,89.1183,1.6016e-05,9.8e-07,0.0,0 STARLINK-5638,1 55426U 23014AM  23178.07636614  .00000098  00000-0  16016-4 0  9991,2 55426  70.0004  52.1958 0003170 270.9613  89.1183 14.98331643 22831,6950.188,96.107,574.256,569.85,0.0
55426.0,STARLINK-5638,PAYLOAD,2023-06-28 01:51:58,14.98333126,0.0003038,70.0008,49.6717,269.2575,90.8236,3.3037e-05,3.01e-06,0.0,0 STARLINK-5638,1 55426U 23014AM  23179.07776412  .00000301  00000-0  33037-4 0  9992,2 55426  70.0008  49.6717 0003038 269.2575  90.8236 14.98333126 22982,6950.183,96.107,574.16,569.937,0.0
55426.0,STARLINK-5638,PAYLOAD,2023-06-29 01:53:59,14.98330285,0.0003041,70.0006,47.1466,268.3353,91.7457,1.6086e-05,9.9e-07,0.0,0 STARLINK-5638,1 55426U 23014AM  23180.07916604  .00000099  00000-0  16086-4 0  9992,2 55426  70.0006  47.1466 0003041 268.3353  91.7457 14.98330285 23138,6950.192,96.107,574.171,569.943,0.0
55426.0,STARLINK-5638,PAYLOAD,2023-06-30 16:21:13,14.98329438,0.0003093,70.0005,43.1064,268.434,91.6464,3.1659e-06,-5.5e-07,0.0,0 STARLINK-5638,1 55426U 23014AM  23181.68140739 -.00000055  00000-0  31659-5 0  9995,2 55426  70.0005  43.1064 0003093 268.4340  91.6464 14.98329438 23372,6950.195,96.107,574.209,569.91,0.0
55426.0,STARLINK-5638,PAYLOAD,2023-07-01 17:59:22,14.98329225,0.0003163,70.0001,40.4125,268.2775,91.8022,4.9878e-05,5.02e-06,0.0,0 STARLINK-5638,1 55426U 23014AM  23182.74956570  .00000502  00000-0  49878-4 0  9998,2 55426  70.0001  40.4125 0003163 268.2775  91.8022 14.98329225 23538,6950.195,96.107,574.259,569.862,0.0
55426.0,STARLINK-5638,PAYLOAD,2023-07-03 00:25:55,14.98336465,0.0003199,70.0002,37.2145,268.8126,91.2666,5.2515e-05,5.34e-06,0.0,0 STARLINK-5638,1 55426U 23014AM  23184.01799874  .00000534  00000-0  52515-4 0  9999,2 55426  70.0002  37.2145 0003199 268.8126  91.2666 14.98336465 23723,6950.173,96.107,574.261,569.815,0.0
55426.0,STARLINK-5638,PAYLOAD,2023-07-03 18:03:24,14.98330239,0.0003114,70.0005,35.3629,269.2513,90.8289,-3.1035e-05,-4.63e-06,0.0,0 STARLINK-5638,1 55426U 23014AM  23184.75236359 -.00000463  00000-0 -31035-4 0  9991,2 55426  70.0005  35.3629 0003114 269.2513  90.8289 14.98330239 23835,6950.192,96.107,574.221,569.893,0.0
55426.0,STARLINK-5638,PAYLOAD,2023-07-04 22:53:49,14.98331335,0.0002998,70.0007,32.3334,269.5167,90.5648,-3.6878e-05,-5.33e-06,0.0,0 STARLINK-5638,1 55426U 23014AM  23185.95404188 -.00000533  00000-0 -36878-4 0  9999,2 55426  70.0007  32.3334 0002998 269.5167  90.5648 14.98331335 24019,6950.189,96.107,574.137,569.97,0.0
55426.0,STARLINK-5638,PAYLOAD,2023-07-05 22:55:50,14.98327556,0.0003059,70.0006,29.8083,269.1825,90.8983,-9.6357e-06,-2.08e-06,0.0,0 STARLINK-5638,1 55426U 23014AM  23186.95544351 -.00000208  00000-0 -96357-5 0  9995,2 55426  70.0006  29.8083 0003059 269.1825  90.8983 14.98327556 24167,6950.2,96.107,574.192,569.939,0.0
55426.0,STARLINK-5638,PAYLOAD,2023-07-06 22:57:51,14.9832969,0.0003097,70.0005,27.2831,268.5844,91.496,1.9368e-05,1.38e-06,0.0,0 STARLINK-5638,1 55426U 23014AM  23187.95684172  .00000138  00000-0  19368-4 0  9998,2 55426  70.0005  27.2831 0003097 268.5844  91.4960 14.98329690 24315,6950.194,96.107,574.211,569.906,0.0
55426.0,STARLINK-5638,PAYLOAD,2023-07-07 22:59:51,14.98331697,0.0003118,70.0005,24.7585,268.6995,91.3807,4.7416e-05,4.73e-06,0.0,0 STARLINK-5638,1 55426U 23014AM  23188.95823906  .00000473  00000-0  47416-4 0  9996,2 55426  70.0005  24.7585 0003118 268.6995  91.3807 14.98331697 24460,6950.188,96.107,574.22,569.886,0.0
55426.0,STARLINK-5638,PAYLOAD,2023-07-08 23:01:52,14.98332572,0.0003157,70.0002,22.2332,269.1894,90.8903,4.2564e-06,-4.2e-07,0.0,0 STARLINK-5638,1 55426U 23014AM  23189.95963905 -.00000042  00000-0  42564-5 0  9994,2 55426  70.0002  22.2332 0003157 269.1894  90.8903 14.98332572 24618,6950.185,96.107,574.244,569.856,0.0
55426.0,STARLINK-5638,PAYLOAD,2023-07-09 23:03:53,14.98332277,0.0003139,70.0003,19.7081,269.7074,90.3725,3.2295e-06,-5.4e-07,0.0,0 STARLINK-5638,1 55426U 23014AM  23190.96103879 -.00000054  00000-0  32295-5 0  9996,2 55426  70.0003  19.7081 0003139 269.7074  90.3725 14.98332277 24762,6950.186,96.107,574.233,569.869,0.0
55426.0,STARLINK-5638,PAYLOAD,2023-07-11 05:30:26,14.9835132,0.0003307,70.0004,16.5095,272.6524,87.4256,-0.00039013,-4.748e-05,0.0,0 STARLINK-5638,1 55426U 23014AM  23192.22947385 -.00004748  00000-0 -39013-3 0  9993,2 55426  70.0004  16.5095 0003307 272.6524  87.4256 14.98351320 24950,6950.127,96.106,574.29,569.694,0.0
55426.0,STARLINK-5638,PAYLOAD,2023-07-11 18:19:31,14.98329075,0.0003195,70.0004,15.1629,269.1486,90.9307,-2.6212e-05,-4.06e-06,0.0,0 STARLINK-5638,1 55426U 23014AM  23192.76356064 -.00000406  00000-0 -26212-4 0  9995,2 55426  70.0004  15.1629 0003195 269.1486  90.9307 14.98329075 25039,6950.196,96.107,574.281,569.84,0.0
55426.0,STARLINK-5638,PAYLOAD,2023-07-12 18:21:31,14.98340864,0.0003138,70.0012,12.6384,266.1687,93.9113,0.00018276,2.089e-05,0.0,0 STARLINK-5638,1 55426U 23014AM  23193.76494853  .00002089  00000-0  18276-3 0  9992,2 55426  70.0012  12.6384 0003138 266.1687  93.9113 14.98340864 25188,6950.159,96.106,574.205,569.843,0.0
55426.0,STARLINK-5638,PAYLOAD,2023-07-13 16:47:25,14.98325505,0.0003249,70.0012,10.2821,269.2515,90.8271,-7.8693e-06,-1.87e-06,0.0,0 STARLINK-5638,1 55426U 23014AM  23194.69960289 -.00000187  00000-0 -78693-5 0  9996,2 55426  70.0012  10.2821 0003249 269.2515  90.8271 14.98325505 25327,6950.207,96.107,574.33,569.814,0.0
